#dP2020  7 11  0  0  0.00000000      97 __u+U IGS14 FIT  IAC
## 2113 518400.00000000   900.00000000 59041 0.0000000000000
+  122   C01C02C03C04C05C06C07C08C09C10C11C12C13C14C16C19C20
+        C21C22C23C24C25C26C27C28C29C30C32C33C34C35C36C37C38
+        C39C40C43C44C45C46C60E01E02E03E04E05E07E08E09E11E12
+        E13E14E15E18E19E21E24E25E26E27E30E31E33E36G01G02G03
+        G04G05G06G07G08G09G10G11G12G13G14G15G16G17G18G19G20
+        G21G22G24G25G26G27G28G29G30G31G32J01J02J03J07R01R02
+        R03R04R05R07R08R09R11R12R13R14R15R16R17R18R19R20R21
+        R23R24R26  0  0  0  0  0  0  0  0  0  0  0  0  0  0
++         0  0  0  0  0  0  0  0  0  0  0  0  0  0  0  0  0
++         0  0  0  0  0  0  0  0  0  0  0  0  0  0  0  0  0
++         0  0  0  0  0  0  0  0  0  0  0  0  0  0  0  0  0
++         0  0  0  0  0  0  0  0  0  0  0  0  0  0  0  0  0
++         0  0  0  0  0  0  0  0  0  0  0  0  0  0  0  0  0
++         0  0  0  0  0  0  0  0  0  0  0  0  0  0  0  0  0
++         0  0  0  0  0  0  0  0  0  0  0  0  0  0  0  0  0
++         0  0  0  0  0  0  0  0  0  0  0  0  0  0  0  0  0
%c M  cc GPS ccc cccc cccc cccc cccc ccccc ccccc ccccc ccccc
%c cc cc ccc ccc cccc cccc cccc cccc ccccc ccccc ccccc ccccc
%f  1.2500000  1.025000000  0.00000000000  0.000000000000000
%f  0.0000000  0.000000000  0.00000000000  0.000000000000000
%i    0    0    0    0      0      0      0      0         0
%i    0    0    0    0      0      0      0      0         0
/* INFORMATION & ANALYSIS CENTER (IAC)            FINAL DATA
/* S/V CLOCKS ARE ALIGNED TO GNSS TIME                      
/* G:C1WC2W R:C1PC2P E:C1XC5X C:C2IC6I J:C1CC2S             
/* PCV:IGS14_2113 OL/AL:FES2004  NONE     YN ORB:CoN CLK:CoN
*  2020 07 11  7 30  0.00000000
PC01 -34286.352808  24486.859063   -629.888281   -337.229406
PC02   4371.210017  41951.668490    591.497066    223.734341
PC03 -14804.296671  39454.456720   1147.610156    831.525213
PC04 -39618.654125  14382.522160    298.728981   -112.942832
PC05  21921.788717  36013.021764    626.636357   -610.909033
PC06 -24044.941511  32119.747546 -13262.525453    777.727813
PC07  -8686.164704  34991.709428 -21252.498254    -25.114524
PC08 -11669.369404  18598.508086  36060.234908   -367.348838
PC09 -11468.560237  31496.208672 -25542.103943    668.576651
PC10   1894.873783  40511.350657 -10434.022444   -239.765106
PC11 -24356.406985  13327.369292   2559.589292   -483.545018
PC12 -23644.211875    660.573326 -14758.690574    428.115718
PC13   4260.872953  24636.577608  34085.196115    536.805636
PC14 -14122.731622  14859.165358  18936.261305    652.010133
PC16 -21556.172598  32657.749102 -15876.780993   -601.765266
PC19   9868.049554 -23027.576251 -12286.719310    471.420050
PC20  15811.389289  -5694.588806 -22264.659511   -840.711535
PC21 -12518.225619 -15789.877345  19337.441467   -642.272928
PC22  -1872.673780 -27401.636678   5049.576223   -773.614411
PC23   8862.754777  20461.448671 -16762.628174   -845.051237
PC24 -23299.394513  -2868.883436 -15075.716048   -768.357906
PC25  -9516.564491  13077.649067 -22740.382586   -682.036395
PC26 -23228.485609 -15427.917560    559.120952    750.399141
PC27  17750.781104   7119.687902  20295.434104    362.360843
PC28  -1033.947640  17247.165488  21909.923877   -199.117979
PC29  18473.283859 -17977.879771 -10701.044478    254.371656
PC30  25799.638863  -7857.258296   7125.386036    344.746781
PC32  12636.623868  15660.644359 -19311.345124   -876.045403
PC33  -9837.623489  22984.118916  12383.007375   -800.618125
PC34 -25865.961922   8127.926057  -6664.036605   -892.876941
PC35    606.165374 -17385.155319 -21819.830061   -755.660705
PC36  10053.379638 -12697.251676  22755.441594   -866.072193
PC37  22620.398097  16304.234571  -1184.478677   -867.198964
PC38 -10487.962077  21573.156779  34655.482221     88.265528
PC39 -18756.851307  34074.274430 -16400.587080     19.024558
PC40  -4016.963057  38808.585677 -15730.304520     60.493962
PC43 -18818.712719  17819.547680  10365.981923   -277.132984
PC44 -17913.593409  -6770.196174 -20317.436144 999999.999999
PC45  -8964.451332 -20365.659600  16846.551236    176.900061
PC46  23076.498728   2402.120491  15539.048344    742.088498
PC60   7249.105310  41512.276219    973.976625 999999.999999
PE01  -2547.775464 -24892.159517  15820.690525   -895.881917
PE02   2632.701627  24930.030553 -15741.649136    146.499787
PE03  -8310.732185  27143.505930  -8351.785731   -319.335081
PE04  -7421.036189 -18551.725585  21850.826011   -563.480530
PE05 -19365.354678  19920.831210  10213.831434   -364.234084
PE07  19018.959243  -1149.194888 -22644.391580   -407.371540
PE08   7598.015552  18243.373501 -22024.852058   6151.320500
PE09 -18921.207876   1406.717914  22724.879213   6000.407792
PE11 -29191.287625  -2191.507830  -4454.967171   4027.095029
PE12 -16719.603687 -13144.628966 -20599.650083   5712.118023
PE13  29142.113183   2202.588795   4683.099559    402.234534
PE14   9012.497015 -25594.849237 -15481.144920  -1080.185957
PE15  16957.281189  12930.625057  20527.663667    860.413985
PE18 -15868.759530  19343.950232   4729.557169  -1182.907593
PE19   9886.023241 -27146.802732   6454.360912     24.834102
PE21  12485.721257 -10978.667173  24491.185141   -609.447676
PE24 -20571.850153  -9990.988025 -18793.348847   5356.966805
PE25 -12580.627259  10830.005122 -24498.875708   -513.444944
PE26  23954.508536 -10003.127767 -14229.722820   2973.221850
PE27  20561.913877   9609.286144  19005.875341    179.950437
PE30  16174.242740  24715.324835   1958.122569   3756.603921
PE31 -16510.634798 -24458.064361  -2365.411988   -473.182532
PE33   5185.702933 -16063.280043 -24315.576990   -465.064133
PE36 -24218.418281   9814.430921  13905.534183    535.627770
PG01 -17620.089364 -14336.045354 -14270.291530     24.089634
PG02  -4849.317069  14876.709541  22101.729655   -485.505706
PG03 -12287.491716 -22122.625055   8174.401175   -236.179408
PG04 -10590.037587 -10964.227196  21762.249359   -113.311044
PG05    290.434712  24349.976299  10221.111302    -16.416036
PG06 -17797.120785   8091.787787  18047.167449   -301.457246
PG07 -26162.745559  -5684.255312  -1433.566556   -324.588229
PG08   -312.590316 -18631.020991 -18815.100540    -40.562810
PG09 -18731.247673    535.975090  18780.413089   -251.621723
PG10  13660.564476  -6637.247318 -21684.907471   -396.348081
PG11  -8233.684992 -14718.599515 -20967.214403   -224.382798
PG12  10426.914785  23123.553875   7897.926242     95.215084
PG13  -8897.848483  20238.854981 -14763.918067     25.741652
PG14  18647.714270 -18671.329088   2267.268799      0.493153
PG15   3471.333274  18576.401804 -18841.318128   -218.332014
PG16    309.201865 -25135.123807   7628.406565   -181.273062
PG17 -21393.719786  14223.343333  -6227.033307    294.168214
PG18  25913.831680   5508.482959  -2132.657383    243.318049
PG19 -20005.537727  17415.272542    522.056882   -133.576948
PG20  17828.483144   5477.732885 -19068.756315    527.324624
PG21  20709.590819  -6676.202917 -14303.926703     22.288052
PG22 -10007.712429 -24688.354640    539.628183   -772.803184
PG24  16149.924478  14625.124954 -15633.867534    -15.488882
PG25  15522.239414  14804.607750  15593.377356     22.048796
PG26   7878.334197 -17680.573986  18054.519327    241.268702
PG27   9812.013383 -21631.915339 -11673.290295   -342.909389
PG28 -13065.798594   7816.993014 -21203.279284    700.678659
PG29  15726.209116   4442.349812  20903.296923   -147.689223
PG30 -23817.104275   2233.736623 -11721.871399   -259.666581
PG31  16882.849132  -8945.755828  18591.018230    -54.832345
PG32  20544.662955 -15552.965771  -6023.459426    315.083762
PJ01 -28928.860018  26298.070714  20735.283656   -262.866727
PJ02 -21990.787001  18183.432414 -26568.566813     -1.175934
PJ03 -28105.757827  31108.468400  10632.419939     -5.154115
PJ07      0.000000      0.000000      0.000000 999999.999999
PR01 -10795.488191  19338.173530  12645.328373     64.376798
PR02  -2201.872097  24049.431463  -8255.204713    435.724292
PR03   7071.669866  12674.307705 -20944.828286     18.332278
PR04  12003.118879  -5885.697944 -21694.361809     55.872574
PR05  10298.297275 -20998.114694 -10146.092494     53.885646
PR07  -7391.391817 -12014.125644  21282.330626    -38.353553
PR08 -12153.355612   5834.092838  21713.796499    -53.399195
PR09 -12297.569906 -19414.590431  11165.652293    142.782185
PR11 -17358.943302  -4501.894074 -18146.808002    -30.123050
PR12  -5906.084754   9416.277236 -22929.502942    146.189791
PR13   9364.937592  18572.659228 -14772.198955    -41.068630
PR14  18991.765056  16851.530427   2355.855432     53.220128
PR15  17568.455121   5349.230558  17724.128367    106.929086
PR16   5410.490249 -10034.272926  22792.671511     -4.600918
PR17  15861.624406   4782.899308  19412.282330    340.271496
PR18  24525.393888  -4102.942893   5573.690233     41.870659
PR19  20727.413049 -10151.898069 -10874.896296   -101.831696
PR20   2822.967951 -11145.305852 -22764.400602   -416.445816
PR21 -16580.625221  -4294.140234 -18897.501069   -137.307337
PR23 -15364.605323  11825.188619  16560.513374    317.893628
PR24  -1856.771610  11492.251139  22704.200010      5.862837
PR26   7934.654752 -11943.439504 -21097.875497   -364.542111
EOF
